{
  "type": "FeatureCollection",
  "features": [
    { "type": "Feature", "properties": { "station": "Islamabad", "temperature": 28, "rainfall": 12 }, "geometry": { "type": "Point", "coordinates": [73.0479, 33.6844] } },
    { "type": "Feature", "properties": { "station": "Lahore", "temperature": 31, "rainfall": 5 }, "geometry": { "type": "Point", "coordinates": [74.3587, 31.5204] } },
    { "type": "Feature", "properties": { "station": "Karachi", "temperature": 32, "rainfall": 2 }, "geometry": { "type": "Point", "coordinates": [67.0011, 24.8607] } },
    { "type": "Feature", "properties": { "station": "Peshawar", "temperature": 29, "rainfall": 8 }, "geometry": { "type": "Point", "coordinates": [71.5249, 34.0151] } },
    { "type": "Feature", "properties": { "station": "Quetta", "temperature": 22, "rainfall": 4 }, "geometry": { "type": "Point", "coordinates": [66.9750, 30.1798] } },
    { "type": "Feature", "properties": { "station": "Faisalabad", "temperature": 30, "rainfall": 6 }, "geometry": { "type": "Point", "coordinates": [73.1350, 31.4504] } },
    { "type": "Feature", "properties": { "station": "Rawalpindi", "temperature": 27, "rainfall": 11 }, "geometry": { "type": "Point", "coordinates": [73.0169, 33.5651] } },
    { "type": "Feature", "properties": { "station": "Multan", "temperature": 34, "rainfall": 3 }, "geometry": { "type": "Point", "coordinates": [71.4961, 30.1575] } },
    { "type": "Feature", "properties": { "station": "Hyderabad", "temperature": 33, "rainfall": 2 }, "geometry": { "type": "Point", "coordinates": [68.3578, 25.3960] } },
    { "type": "Feature", "properties": { "station": "Sukkur", "temperature": 35, "rainfall": 1 }, "geometry": { "type": "Point", "coordinates": [68.8574, 27.7052] } },
    { "type": "Feature", "properties": { "station": "Gujranwala", "temperature": 29, "rainfall": 7 }, "geometry": { "type": "Point", "coordinates": [74.1945, 32.1877] } },
    { "type": "Feature", "properties": { "station": "Sialkot", "temperature": 28, "rainfall": 9 }, "geometry": { "type": "Point", "coordinates": [74.5229, 32.4945] } },
    { "type": "Feature", "properties": { "station": "Abbottabad", "temperature": 20, "rainfall": 15 }, "geometry": { "type": "Point", "coordinates": [73.2215, 34.1688] } },
    { "type": "Feature", "properties": { "station": "Muzaffarabad", "temperature": 24, "rainfall": 18 }, "geometry": { "type": "Point", "coordinates": [73.4711, 34.3709] } },
    { "type": "Feature", "properties": { "station": "Gilgit", "temperature": 18, "rainfall": 6 }, "geometry": { "type": "Point", "coordinates": [74.3144, 35.9208] } }
  ]
}